{
  "norad_id": 46039,
  "name": "STARLINK-1569",
  "history": [
    {
      "epoch": "2026-03-28T13:39:12.170304Z",
      "apogee_km": 476.14901559023383,
      "perigee_km": 474.28764428262366,
      "latitude_deg": 2.004007656561061e-05,
      "longitude_deg": 8.22374511561499,
      "height_km": 476.24962321585946,
      "semi_major_axis_km": 6853.3553299364285,
      "eccentricity": 0.0001358,
      "inclination_deg": 53.1591,
      "raan_deg": 39.0119,
      "arg_perigee_deg": 98.2423,
      "mean_anomaly_deg": 261.8732,
      "mean_motion_rev_day": 15.30198908
    },
    {
      "epoch": "2026-03-29T03:45:40.756608Z",
      "apogee_km": 476.22704476893887,
      "perigee_km": 474.143634777648,
      "latitude_deg": 8.664389833127063e-06,
      "longitude_deg": 153.29553441743096,
      "height_km": 476.4323614565787,
      "semi_major_axis_km": 6853.322339773294,
      "eccentricity": 0.000152,
      "inclination_deg": 53.1586,
      "raan_deg": 36.2822,
      "arg_perigee_deg": 109.5932,
      "mean_anomaly_deg": 250.5233,
      "mean_motion_rev_day": 15.30209957
    },
    {
      "epoch": "2026-03-30T03:16:28.885152Z",
      "apogee_km": 476.1309236856396,
      "perigee_km": 474.3367112056312,
      "latitude_deg": -3.7770128910414847e-05,
      "longitude_deg": 155.0776050526226,
      "height_km": 476.34453762840695,
      "semi_major_axis_km": 6853.370817445635,
      "eccentricity": 0.0001309,
      "inclination_deg": 53.1583,
      "raan_deg": 31.7305,
      "arg_perigee_deg": 103.7238,
      "mean_anomaly_deg": 256.3908,
      "mean_motion_rev_day": 15.30193721
    },
    {
      "epoch": "2026-03-30T03:16:28.886016Z",
      "apogee_km": 476.1309922193468,
      "perigee_km": 474.336642671924,
      "latitude_deg": -3.866681952858948e-05,
      "longitude_deg": 155.07760077465204,
      "height_km": 476.344553887269,
      "semi_major_axis_km": 6853.370817445635,
      "eccentricity": 0.00013091,
      "inclination_deg": 53.1583,
      "raan_deg": 31.7305,
      "arg_perigee_deg": 103.7238,
      "mean_anomaly_deg": 256.3908,
      "mean_motion_rev_day": 15.30193721
    },
    {
      "epoch": "2026-03-30T12:40:48.191520Z",
      "apogee_km": 476.09819088364475,
      "perigee_km": 474.32235153872807,
      "latitude_deg": 1.3164879338931493e-05,
      "longitude_deg": 11.790635728449278,
      "height_km": 476.2964576454155,
      "semi_major_axis_km": 6853.347271211186,
      "eccentricity": 0.00012956,
      "inclination_deg": 53.1583,
      "raan_deg": 29.9102,
      "arg_perigee_deg": 102.2432,
      "mean_anomaly_deg": 257.8714,
      "mean_motion_rev_day": 15.30201607
    },
    {
      "epoch": "2026-03-30T20:31:03.970848Z",
      "apogee_km": 476.10441377849656,
      "perigee_km": 474.248673537144,
      "latitude_deg": 2.5370272712426984e-05,
      "longitude_deg": -107.6130855785929,
      "height_km": 476.35468068837883,
      "semi_major_axis_km": 6853.3135436578195,
      "eccentricity": 0.00013539,
      "inclination_deg": 53.1588,
      "raan_deg": 28.3941,
      "arg_perigee_deg": 107.5782,
      "mean_anomaly_deg": 252.5367,
      "mean_motion_rev_day": 15.30212903
    },
    {
      "epoch": "2026-03-31T20:01:51.893760Z",
      "apogee_km": 476.9847985283559,
      "perigee_km": 473.43750552486836,
      "latitude_deg": -6.239778252688843e-05,
      "longitude_deg": -105.82928583930857,
      "height_km": 476.50661884274103,
      "semi_major_axis_km": 6853.348152026612,
      "eccentricity": 0.0002588,
      "inclination_deg": 53.1594,
      "raan_deg": 23.8433,
      "arg_perigee_deg": 103.0097,
      "mean_anomaly_deg": 257.1192,
      "mean_motion_rev_day": 15.30201312
    },
    {
      "epoch": "2026-04-01T05:26:11.550912Z",
      "apogee_km": 476.1900259644508,
      "perigee_km": 474.3533124411042,
      "latitude_deg": 2.875941247864103e-05,
      "longitude_deg": 110.88320925945364,
      "height_km": 476.52149002857084,
      "semi_major_axis_km": 6853.408669202777,
      "eccentricity": 0.000134,
      "inclination_deg": 53.1597,
      "raan_deg": 22.0239,
      "arg_perigee_deg": 112.5211,
      "mean_anomaly_deg": 247.5932,
      "mean_motion_rev_day": 15.30181044
    },
    {
      "epoch": "2026-04-02T19:03:29.561760Z",
      "apogee_km": 475.94837550245757,
      "perigee_km": 474.5818071254489,
      "latitude_deg": -2.4062920141835082e-05,
      "longitude_deg": -102.26894085959944,
      "height_km": 475.7259194296985,
      "semi_major_axis_km": 6853.402091313953,
      "eccentricity": 9.97e-05,
      "inclination_deg": 53.1601,
      "raan_deg": 14.7419,
      "arg_perigee_deg": 50.1388,
      "mean_anomaly_deg": 309.97,
      "mean_motion_rev_day": 15.30183247
    },
    {
      "epoch": "2026-04-02T19:03:29.562624Z",
      "apogee_km": 475.9481669142224,
      "perigee_km": 474.5820097419346,
      "latitude_deg": -2.1940600018624853e-05,
      "longitude_deg": -102.26894288824556,
      "height_km": 475.7260482187073,
      "semi_major_axis_km": 6853.402088328078,
      "eccentricity": 9.967e-05,
      "inclination_deg": 53.1601,
      "raan_deg": 14.7419,
      "arg_perigee_deg": 50.1388,
      "mean_anomaly_deg": 309.97,
      "mean_motion_rev_day": 15.30183248
    },
    {
      "epoch": "2026-04-03T18:34:16.717440Z",
      "apogee_km": 475.7136429360489,
      "perigee_km": 474.6047796090652,
      "latitude_deg": -3.1803859143591834e-05,
      "longitude_deg": -100.48267719573656,
      "height_km": 475.7222217010419,
      "semi_major_axis_km": 6853.296211272557,
      "eccentricity": 8.09e-05,
      "inclination_deg": 53.1606,
      "raan_deg": 10.1903,
      "arg_perigee_deg": 52.7,
      "mean_anomaly_deg": 307.4074,
      "mean_motion_rev_day": 15.30218708
    },
    {
      "epoch": "2026-04-04T03:58:35.444064Z",
      "apogee_km": 476.0549384403894,
      "perigee_km": 474.26197928244164,
      "latitude_deg": -4.346229560563227e-05,
      "longitude_deg": 116.23182842910232,
      "height_km": 476.0268407043933,
      "semi_major_axis_km": 6853.295458861416,
      "eccentricity": 0.00013081,
      "inclination_deg": 53.1603,
      "raan_deg": 8.3691,
      "arg_perigee_deg": 88.1022,
      "mean_anomaly_deg": 272.0128,
      "mean_motion_rev_day": 15.3021896
    }
  ]
}